ONEWEB-0697             
1 61603U 24188K   24354.92288463  .00003530  00000+0  43191-3 0  9990
2 61603  86.5711 144.4273 0003821  63.3929 296.7685 14.82954542 10230
ONEWEB-0698             
1 61604U 24188L   24354.90838840  .00003570  00000+0  43670-3 0  9995
2 61604  86.5789 144.4572 0005916  33.3051 326.8543 14.82955797  9990
ONEWEB-0699             
1 61605U 24188M   24355.16667824 -.00378869  00000+0 -28201+0 0  9994
2 61605  87.2142 146.8372 0003859  50.4709 149.8371 13.97352331  9970
ONEWEB-0700             
1 61606U 24188N   24354.91667824  .00015776  00000+0  11249-1 0  9996
2 61606  87.1881 146.9094 0002529  45.9765 219.4674 13.97207209  9980
ONEWEB-0701             
1 61607U 24188P   24355.16667824 -.00014475  00000+0 -10321-1 0  9992
2 61607  87.1766 146.8141 0003769  21.9112 262.6011 13.97562702 10161
ONEWEB-0702             
1 61608U 24188Q   24354.44173092  .00003906  00000+0  47771-3 0  9998
2 61608  86.5810 144.6744 0005986  33.7513 326.4090 14.82991038 11899
ONEWEB-0704             
1 61609U 24188R   24354.58334491 -.00018892  00000+0 -13534-1 0  9996
2 61609  87.1875 147.0637 0003771  88.0373 246.3755 13.97313140  5688
ONEWEB-0705             
1 61610U 24188S   24354.58334491 -.01079378  00000+0 -73772+0 0  9993
2 61610  87.2350 146.9308 0006098  63.2123 160.6165 14.03317306  5707
